ONEWEB-0176             
1 48210U 21031A   25100.82997020  .00000284  00000+0  73216-3 0  9992
2 48210  87.9096  15.6853 0001861  77.6090 282.5248 13.14503592191510
ONEWEB-0184             
1 48211U 21031B   25101.48805932 -.00000124  00000+0 -37021-3 0  9995
2 48211  87.9092  15.5277 0001506  48.9284 311.1975 13.14505137191577
ONEWEB-0179             
1 48212U 21031C   25101.15425350  .00000044  00000+0  83200-4 0  9992
2 48212  87.9097  15.6085 0001785  80.6057 279.5274 13.14507316191571
ONEWEB-0180             
1 48213U 21031D   25100.80617593 -.00000360  00000+0 -10044-2 0  9993
2 48213  87.9091  15.6668 0001589  76.4674 283.6633 13.14502384191411
ONEWEB-0218             
1 48214U 21031E   25100.82837726  .00000321  00000+0  83051-3 0  9992
2 48214  87.9093  15.6638 0001203  48.7677 311.3556 13.14505358191573
ONEWEB-0209             
1 48215U 21031F   25101.50234054  .00000123  00000+0  29748-3 0  9997
2 48215  87.9093  15.5712 0001719  83.8293 276.3033 13.14503747191662
ONEWEB-0198             
1 48216U 21031G   25101.25812506 -.00000291  00000+0 -82049-3 0  9995
2 48216  87.9093  15.6219 0001479  75.6152 284.5142 13.14502481191725
ONEWEB-0189             
1 48217U 21031H   25101.19469749  .00000117  00000+0  28046-3 0  9998
2 48217  87.9091  15.6086 0001395  77.6429 282.4857 13.14503785191472
